CAS-2T & KS-1Q          
1 41847U 16066G   20235.86250130  .00000020  00000-0  13106-4 0  9997
2 41847  98.6485 287.0235 0366153  31.1962 331.0405 14.38085974198967
NAYIF-1 (EO-88)         
1 42017U 17008BX  20235.75286754  .00001108  00000-0  44995-4 0  9991
2 42017  97.3554 302.3378 0007947  89.1562 271.0587 15.26658787195665
MAX VALIER SAT          
1 42778U 17036P   20235.71582314  .00000650  00000-0  30758-4 0  9996
2 42778  97.2996 287.5025 0013279 142.9645 217.2511 15.22718706175814
RADFXSAT (FOX-1B)       
1 43017U 17073E   20235.75973233  .00000192  00000-0  20557-4 0  9999
2 43017  97.7179 145.4329 0256355 193.9996 165.4018 14.78994706148965
FOX-1D (AO-92)          
1 43137U 18004AC  20235.85755869  .00000745  00000-0  33454-4 0  9995
2 43137  97.4417 306.5590 0009294 172.1402 187.9983 15.24230814145163
DIWATA-2B               
1 43678U 18084H   20236.08627950 -.00000099  00000-0 -41037-5 0  9999
2 43678  97.8915 354.5137 0009050 324.1074  35.9559 14.91643221 98952
ES'HAIL 2               
1 43700U 18090A   20235.81600067  .00000130  00000-0  00000-0 0  9996
2 43700   0.0160 114.0416 0001898  62.0085 115.0690  1.00272960  6372
FOX-1CLIFF (AO-95)      
1 43770U 18099N   20235.83696432 -.00000095  00000-0 -34115-5 0  9996
2 43770  97.7020 306.0480 0013994 341.4577  18.6132 14.95027000 93838
ITASAT 1                
1 43786U 18099AE  20235.75205286  .00000530  00000-0  53140-4 0  9997
2 43786  97.7037 306.4316 0014336 334.9140  25.1383 14.95360432 93840
JY1SAT (JO-97)          
1 43803U 18099AX  20235.75859847  .00000377  00000-0  39120-4 0  9996
2 43803  97.6998 306.2414 0014319 335.3532  24.7003 14.95545356 93847
PSAT2 (NO-104)          
1 44354U 19036R   20235.88149512  .00009880  00000-0  14112-3 0  9996
2 44354  28.5322 304.0265 0359403 301.0135  55.5629 15.04689572 63830
BRICSAT2 (NO-103)       
1 44355U 19036S   20235.83096297  .00019711  00000-0  26890-3 0  9993
2 44355  28.5311 291.8693 0333902 320.7971  36.8874 15.11167190 63940
JAISAT-1                
1 44419U 19038F   20236.16155204  .00000600  00000-0  37739-4 0  9999
2 44419  97.5439 196.9995 0019848 260.4418  99.4570 15.12874256 62681
DUCHIFAT-3              
1 44854U 19089C   20235.90191043  .00000200  00000-0  22562-4 0  9994
2 44854  36.9663  65.6430 0009276 249.4483 110.5263 14.99106254 38271
RS-44 & BREEZE-KM R/B   
1 44909U 19096E   20235.73610252  .00000035  00000-0  89733-4 0  9991
2 44909  82.5230 311.2761 0218399  71.6838 290.7887 12.79707652 30666
ORBITAL FACTORY 2 (OF-2)
1 45113U 19071C   20235.76197443  .00001185  00000-0  47450-4 0  9994
2 45113  51.6449  43.1828 0012360 297.5562  62.4164 15.33553863 31301
HUSKYSAT-1              
1 45119U 19071J   20236.05710613  .00001255  00000-0  49287-4 0  9991
2 45119  51.6444  41.4041 0011620 295.1134  64.8642 15.33756704 31347
